{
  "type": "FeatureCollection",
  "features": [
    {
      "type": "Feature",
      "properties": {
        "norad_id": 33376,
        "name": "GALAXY 19 (G-19)",
        "group": "intelsat",
        "lat": -0.014230028016828392,
        "lon": 142.77645359560822,
        "alt_km": 35794.74280444499,
        "timestamp": "2025-12-24T09:46:30.663184+00:00",
        "meta_object_name": "GALAXY 19 (G-19)",
        "meta_object_id": "2008-045A",
        "meta_epoch": "2025-12-23T22:56:33.064800",
        "meta_mean_motion": 1.00270811,
        "meta_eccentricity": 0.0002658,
        "meta_inclination": 0.0443,
        "meta_ra_of_asc_node": 265.0665,
        "meta_arg_of_pericenter": 15.7896,
        "meta_mean_anomaly": 59.014,
        "meta_ephemeris_type": 0,
        "meta_classification_type": "U",
        "meta_norad_cat_id": 33376,
        "meta_element_set_no": 999,
        "meta_rev_at_epoch": 6314,
        "meta_bstar": 0,
        "meta_mean_motion_dot": -1.18e-06,
        "meta_mean_motion_ddot": 0,
        "tle_line1": "1 33376U 08045A   25357.95593825 -.00000118  00000+0  00000+0 0  9996",
        "tle_line2": "2 33376   0.0443 265.0665 0002658  15.7896  59.0140  1.00270811 63145"
      },
      "geometry": {
        "type": "Point",
        "coordinates": [
          142.77645359560822,
          -0.014230028016828392
        ]
      }
    },
    {
      "type": "Feature",
      "properties": {
        "norad_id": 35493,
        "name": "FM-5",
        "group": "intelsat",
        "lat": -0.001716878859766189,
        "lon": 153.66008760099322,
        "alt_km": 35782.66908367737,
        "timestamp": "2025-12-24T09:46:30.663197+00:00",
        "meta_object_name": "FM-5",
        "meta_object_id": "2009-034A",
        "meta_epoch": "2025-12-24T03:45:40.818816",
        "meta_mean_motion": 1.00270077,
        "meta_eccentricity": 9.32e-05,
        "meta_inclination": 0.0207,
        "meta_ra_of_asc_node": 292.326,
        "meta_arg_of_pericenter": 225.3034,
        "meta_mean_anomaly": 265.5848,
        "meta_ephemeris_type": 0,
        "meta_classification_type": "U",
        "meta_norad_cat_id": 35493,
        "meta_element_set_no": 999,
        "meta_rev_at_epoch": 4488,
        "meta_bstar": 0,
        "meta_mean_motion_dot": -1.79e-06,
        "meta_mean_motion_ddot": 0,
        "tle_line1": "1 35493U 09034A   25358.15672244 -.00000179  00000+0  00000+0 0  9990",
        "tle_line2": "2 35493   0.0207 292.3260 0000932 225.3034 265.5848  1.00270077 44888"
      },
      "geometry": {
        "type": "Point",
        "coordinates": [
          153.66008760099322,
          -0.001716878859766189
        ]
      }
    },
    {
      "type": "Feature",
      "properties": {
        "norad_id": 36097,
        "name": "INTELSAT 14 (IS-14)",
        "group": "intelsat",
        "lat": -0.0049305951302862,
        "lon": -165.23837551550488,
        "alt_km": 35786.934571962,
        "timestamp": "2025-12-24T09:46:30.663209+00:00",
        "meta_object_name": "INTELSAT 14 (IS-14)",
        "meta_object_id": "2009-064A",
        "meta_epoch": "2025-12-24T00:11:38.701248",
        "meta_mean_motion": 1.00269289,
        "meta_eccentricity": 0.0002594,
        "meta_inclination": 0.0139,
        "meta_ra_of_asc_node": 4.4351,
        "meta_arg_of_pericenter": 280.9851,
        "meta_mean_anomaly": 125.2714,
        "meta_ephemeris_type": 0,
        "meta_classification_type": "U",
        "meta_norad_cat_id": 36097,
        "meta_element_set_no": 999,
        "meta_rev_at_epoch": 5884,
        "meta_bstar": 0,
        "meta_mean_motion_dot": -2.53e-06,
        "meta_mean_motion_ddot": 0,
        "tle_line1": "1 36097U 09064A   25358.00808682 -.00000253  00000+0  00000+0 0  9998",
        "tle_line2": "2 36097   0.0139   4.4351 0002594 280.9851 125.2714  1.00269289 58844"
      },
      "geometry": {
        "type": "Point",
        "coordinates": [
          -165.23837551550488,
          -0.0049305951302862
        ]
      }
    },
    {
      "type": "Feature",
      "properties": {
        "norad_id": 36106,
        "name": "INTELSAT 15 (IS-15)",
        "group": "intelsat",
        "lat": -0.030976732004264537,
        "lon": -35.0199632859128,
        "alt_km": 35778.93336653373,
        "timestamp": "2025-12-24T09:46:30.663221+00:00",
        "meta_object_name": "INTELSAT 15 (IS-15)",
        "meta_object_id": "2009-067A",
        "meta_epoch": "2025-12-23T23:48:35.582400",
        "meta_mean_motion": 1.00270914,
        "meta_eccentricity": 0.000229,
        "meta_inclination": 0.0165,
        "meta_ra_of_asc_node": 21.0917,
        "meta_arg_of_pericenter": 263.9004,
        "meta_mean_anomaly": 250.09,
        "meta_ephemeris_type": 0,
        "meta_classification_type": "U",
        "meta_norad_cat_id": 36106,
        "meta_element_set_no": 999,
        "meta_rev_at_epoch": 3947,
        "meta_bstar": 0,
        "meta_mean_motion_dot": -1.64e-06,
        "meta_mean_motion_ddot": 0,
        "tle_line1": "1 36106U 09067A   25357.99207850 -.00000164  00000+0  00000+0 0  9990",
        "tle_line2": "2 36106   0.0165  21.0917 0002290 263.9004 250.0900  1.00270914 39470"
      },
      "geometry": {
        "type": "Point",
        "coordinates": [
          -35.0199632859128,
          -0.030976732004264537
        ]
      }
    },
    {
      "type": "Feature",
      "properties": {
        "norad_id": 36131,
        "name": "DIRECTV 12",
        "group": "intelsat",
        "lat": 0.014770893034466874,
        "lon": 137.09126547724188,
        "alt_km": 35788.009432393235,
        "timestamp": "2025-12-24T09:46:30.663234+00:00",
        "meta_object_name": "DIRECTV 12",
        "meta_object_id": "2009-075A",
        "meta_epoch": "2025-12-24T04:10:44.775840",
        "meta_mean_motion": 1.0027113,
        "meta_eccentricity": 4.2e-05,
        "meta_inclination": 0.0196,
        "meta_ra_of_asc_node": 114.8681,
        "meta_arg_of_pericenter": 212.7199,
        "meta_mean_anomaly": 85.3384,
        "meta_ephemeris_type": 0,
        "meta_classification_type": "U",
        "meta_norad_cat_id": 36131,
        "meta_element_set_no": 999,
        "meta_rev_at_epoch": 4479,
        "meta_bstar": 0,
        "meta_mean_motion_dot": -8.2e-07,
        "meta_mean_motion_ddot": 0,
        "tle_line1": "1 36131U 09075A   25358.17412935 -.00000082  00000+0  00000+0 0  9999",
        "tle_line2": "2 36131   0.0196 114.8681 0000420 212.7199  85.3384  1.00271130 44798"
      },
      "geometry": {
        "type": "Point",
        "coordinates": [
          137.09126547724188,
          0.014770893034466874
        ]
      }
    },
    {
      "type": "Feature",
      "properties": {
        "norad_id": 36397,
        "name": "INTELSAT 16 (IS-16)",
        "group": "intelsat",
        "lat": 0.0013576241435467225,
        "lon": 163.59448699467958,
        "alt_km": 35787.835791484365,
        "timestamp": "2025-12-24T09:46:30.663246+00:00",
        "meta_object_name": "INTELSAT 16 (IS-16)",
        "meta_object_id": "2010-006A",
        "meta_epoch": "2025-12-23T12:46:10.935264",
        "meta_mean_motion": 1.00272728,
        "meta_eccentricity": 0.00018836,
        "meta_inclination": 0.0115,
        "meta_ra_of_asc_node": 325.676,
        "meta_arg_of_pericenter": 301.9136,
        "meta_mean_anomaly": 300.0848,
        "meta_ephemeris_type": 0,
        "meta_classification_type": "U",
        "meta_norad_cat_id": 36397,
        "meta_element_set_no": 999,
        "meta_rev_at_epoch": 5789,
        "meta_bstar": 0,
        "meta_mean_motion_dot": -2.24e-06,
        "meta_mean_motion_ddot": 0,
        "tle_line1": "1 36397U 10006A   25357.53207101 -.00000224  00000+0  00000+0 0  9993",
        "tle_line2": "2 36397   0.0115 325.6760 0001883 301.9136 300.0848  1.00272728 57890"
      },
      "geometry": {
        "type": "Point",
        "coordinates": [
          163.59448699467958,
          0.0013576241435467225
        ]
      }
    },
    {
      "type": "Feature",
      "properties": {
        "norad_id": 37185,
        "name": "XM-5",
        "group": "intelsat",
        "lat": -0.014708592176323343,
        "lon": 124.59475280523769,
        "alt_km": 35778.70198857031,
        "timestamp": "2025-12-24T09:46:30.663258+00:00",
        "meta_object_name": "XM-5",
        "meta_object_id": "2010-053A",
        "meta_epoch": "2025-12-24T03:22:00.044256",
        "meta_mean_motion": 1.0026917,
        "meta_eccentricity": 0.0002107,
        "meta_inclination": 0.067,
        "meta_ra_of_asc_node": 269.9485,
        "meta_arg_of_pericenter": 238.8367,
        "meta_mean_anomaly": 239.4376,
        "meta_ephemeris_type": 0,
        "meta_classification_type": "U",
        "meta_norad_cat_id": 37185,
        "meta_element_set_no": 999,
        "meta_rev_at_epoch": 5572,
        "meta_bstar": 0,
        "meta_mean_motion_dot": -2e-08,
        "meta_mean_motion_ddot": 0,
        "tle_line1": "1 37185U 10053A   25358.14027829 -.00000002  00000+0  00000+0 0  9990",
        "tle_line2": "2 37185   0.0670 269.9485 0002107 238.8367 239.4376  1.00269170 55728"
      },
      "geometry": {
        "type": "Point",
        "coordinates": [
          124.59475280523769,
          -0.014708592176323343
        ]
      }
    }
  ]
}